0 SL-19 R/B
1 36039U 09059D   13281.94901432  .00001177  00000-0  12104-3 0  2586
2 36039 098.3308 202.8079 0145789 300.9438 057.7514 14.85088046213080
0 SL-19 R/B
1 36039U 09059D   13283.43129316  .00000947  00000-0  98833-4 0  2594
2 36039 098.3310 204.3583 0145731 296.1009 062.5269 14.85093398213309
0 SL-19 R/B
1 36039U 09059D   13285.78945792  .00000832  00000-0  87744-4 0  2613
2 36039 098.3315 206.8247 0145647 288.4022 070.1402 14.85098787213652
0 SL-19 R/B
1 36039U 09059D   13286.80009700  .00001030  00000-0  10685-3 0  2628
2 36039 098.3317 207.8818 0145664 285.1003 073.4134 14.85100102213801
0 SL-19 R/B
1 36039U 09059D   13287.81073604  .00001268  00000-0  12977-3 0  2634
2 36039 098.3318 208.9389 0145676 281.8011 076.6894 14.85103255213958
0 SL-19 R/B
1 36039U 09059D   13289.49513294  .00001099  00000-0  11350-3 0  2641
2 36039 098.3318 210.7009 0145669 276.2937 082.1702 14.85109759214209
0 SL-19 R/B
1 36039U 09059D   13290.77527364  .00001120  00000-0  11548-3 0  2652
2 36039 098.3319 212.0402 0145659 272.1140 086.3400 14.85114181214398
0 SL-19 R/B
1 36039U 09059D   13291.85328443  .00001079  00000-0  11154-3 0  2666
2 36039 098.3319 213.1679 0145656 268.5909 089.8615 14.85116542214552
0 SL-19 R/B
1 36039U 09059D   13292.99866878  .00001208  00000-0  12396-3 0  2675
2 36039 098.3319 214.3663 0145669 264.8556 093.6018 14.85119294214725
0 SL-19 R/B
1 36039U 09059D   13294.00930079  .00001316  00000-0  13436-3 0  2681
2 36039 098.3319 215.4237 0145707 261.5619 096.9057 14.85121792214872
0 SL-19 R/B
1 36039U 09059D   13295.55893593  .00001398  00000-0  14222-3 0  2696
2 36039 098.3319 217.0449 0145760 256.5035 101.9902 14.85125967215101
